{"type": "FeatureCollection", "features": [ {"type": "Feature", "properties": {"norad_id": 41836, "name": "HIMAWARI-9", "group": "weather", "lat": -0.00034343455658036176, "lon": -162.86190901726548, "alt_km": 35785.04847435676, "timestamp": "2025-12-07T22:37:42.725691+00:00", "meta": {"OBJECT_NAME": "HIMAWARI-9", "OBJECT_ID": "2016-064A", "EPOCH": "2025-12-06T21:52:38.561088", "MEAN_MOTION": 1.00273563, "ECCENTRICITY": 0.00015412, "INCLINATION": 0.0141, "RA_OF_ASC_NODE": 56.4298, "ARG_OF_PERICENTER": 225.2195, "MEAN_ANOMALY": 263.2228, "EPHEMERIS_TYPE": 0, "CLASSIFICATION_TYPE": "U", "NORAD_CAT_ID": 41836, "ELEMENT_SET_NO": 999, "REV_AT_EPOCH": 3328, "BSTAR": 0, "MEAN_MOTION_DOT": -2.69e-06, "MEAN_MOTION_DDOT": 0}, "tle": {"line1": "1 41836U 16064A   25340.91155742 -.00000269  00000+0  00000+0 0  9993", "line2": "2 41836   0.0141  56.4298 0001541 225.2195 263.2228  1.00273563 33289"}}, "geometry": {"type": "Point", "coordinates": [-162.86190901726548, -0.00034343455658036176]}}, {"type": "Feature", "properties": {"norad_id": 41866, "name": "GOES 16", "group": "weather", "lat": -0.04177975111743159, "lon": -48.256742628335154, "alt_km": 35776.993656670056, "timestamp": "2025-12-07T22:37:42.725703+00:00", "meta": {"OBJECT_NAME": "GOES 16", "OBJECT_ID": "2016-071A", "EPOCH": "2025-12-07T06:17:19.680576", "MEAN_MOTION": 1.00271454, "ECCENTRICITY": 0.00035237, "INCLINATION": 0.0652, "RA_OF_ASC_NODE": 105.9469, "ARG_OF_PERICENTER": 153.7842, "MEAN_ANOMALY": 166.2201, "EPHEMERIS_TYPE": 0, "CLASSIFICATION_TYPE": "U", "NORAD_CAT_ID": 41866, "ELEMENT_SET_NO": 999, "REV_AT_EPOCH": 3317, "BSTAR": 0, "MEAN_MOTION_DOT": -8.6e-07, "MEAN_MOTION_DDOT": 0}, "tle": {"line1": "1 41866U 16071A   25341.26203334 -.00000086  00000+0  00000+0 0  9991", "line2": "2 41866   0.0652 105.9469 0003523 153.7842 166.2201  1.00271454 33173"}}, "geometry": {"type": "Point", "coordinates": [-48.256742628335154, -0.04177975111743159]}}, {"type": "Feature", "properties": {"norad_id": 41882, "name": "FENGYUN 4A", "group": "weather", "lat": 1.8129603037285786, "lon": -179.83307076989183, "alt_km": 35769.8707889913, "timestamp": "2025-12-07T22:37:42.725716+00:00", "meta": {"OBJECT_NAME": "FENGYUN 4A", "OBJECT_ID": "2016-077A", "EPOCH": "2025-12-07T00:41:38.834016", "MEAN_MOTION": 1.0027613, "ECCENTRICITY": 0.00050078, "INCLINATION": 1.8341, "RA_OF_ASC_NODE": 82.4469, "ARG_OF_PERICENTER": 142.6918, "MEAN_ANOMALY": 345.1376, "EPHEMERIS_TYPE": 0, "CLASSIFICATION_TYPE": "U", "NORAD_CAT_ID": 41882, "ELEMENT_SET_NO": 999, "REV_AT_EPOCH": 3300, "BSTAR": 0, "MEAN_MOTION_DOT": -3.52e-06, "MEAN_MOTION_DDOT": 0}, "tle": {"line1": "1 41882U 16077A   25341.02892169 -.00000352  00000+0  00000+0 0  9995", "line2": "2 41882   1.8341  82.4469 0005007 142.6918 345.1376  1.00276130 33003"}}, "geometry": {"type": "Point", "coordinates": [-179.83307076989183, 1.8129603037285786]}}, {"type": "Feature", "properties": {"norad_id": 41884, "name": "CYGFM05", "group": "weather", "lat": -27.583313979656648, "lon": -53.14674146656851, "alt_km": 426.6967465489961, "timestamp": "2025-12-07T22:37:42.725727+00:00", "meta": {"OBJECT_NAME": "CYGFM05", "OBJECT_ID": "2016-078A", "EPOCH": "2025-12-06T23:56:44.248704", "MEAN_MOTION": 15.47324397, "ECCENTRICITY": 0.00094661, "INCLINATION": 34.96, "RA_OF_ASC_NODE": 84.6299, "ARG_OF_PERICENTER": 129.2466, "MEAN_ANOMALY": 230.9097, "EPHEMERIS_TYPE": 0, "CLASSIFICATION_TYPE": "U", "NORAD_CAT_ID": 41884, "ELEMENT_SET_NO": 999, "REV_AT_EPOCH": 49887, "BSTAR": 0.00054005998, "MEAN_MOTION_DOT": 0.00028521, "MEAN_MOTION_DDOT": 0}, "tle": {"line1": "1 41884U 16078A   25340.99773436  .00028521  00000+0  54006-3 0  9994", "line2": "2 41884  34.9600  84.6299 0009466 129.2466 230.9097 15.47324397498873"}}, "geometry": {"type": "Point", "coordinates": [-53.14674146656851, -27.583313979656648]}}, {"type": "Feature", "properties": {"norad_id": 41885, "name": "CYGFM04", "group": "weather", "lat": 31.55476015023302, "lon": 114.9909797933065, "alt_km": 411.7981011315378, "timestamp": "2025-12-07T22:37:42.725753+00:00", "meta": {"OBJECT_NAME": "CYGFM04", "OBJECT_ID": "2016-078B", "EPOCH": "2025-12-07T06:53:14.362656", "MEAN_MOTION": 15.50024545, "ECCENTRICITY": 0.00087773, "INCLINATION": 34.9352, "RA_OF_ASC_NODE": 57.6748, "ARG_OF_PERICENTER": 161.318, "MEAN_ANOMALY": 198.7865, "EPHEMERIS_TYPE": 0, "CLASSIFICATION_TYPE": "U", "NORAD_CAT_ID": 41885, "ELEMENT_SET_NO": 999, "REV_AT_EPOCH": 49909, "BSTAR": 0.00052828767, "MEAN_MOTION_DOT": 0.00030684, "MEAN_MOTION_DDOT": 0}, "tle": {"line1": "1 41885U 16078B   25341.28697179  .00030684  00000+0  52829-3 0  9991", "line2": "2 41885  34.9352  57.6748 0008777 161.3180 198.7865 15.50024545499096"}}, "geometry": {"type": "Point", "coordinates": [114.9909797933065, 31.55476015023302]}}, {"type": "Feature", "properties": {"norad_id": 41886, "name": "CYGFM02", "group": "weather", "lat": 28.11415122606107, "lon": 101.68133328232686, "alt_km": 409.79019018860527, "timestamp": "2025-12-07T22:37:42.725765+00:00", "meta": {"OBJECT_NAME": "CYGFM02", "OBJECT_ID": "2016-078C", "EPOCH": "2025-12-07T06:56:49.173792", "MEAN_MOTION": 15.51382069, "ECCENTRICITY": 0.00105145, "INCLINATION": 34.944, "RA_OF_ASC_NODE": 56.0541, "ARG_OF_PERICENTER": 160.5047, "MEAN_ANOMALY": 199.6079, "EPHEMERIS_TYPE": 0, "CLASSIFICATION_TYPE": "U", "NORAD_CAT_ID": 41886, "ELEMENT_SET_NO": 999, "REV_AT_EPOCH": 49922, "BSTAR": 0.00053597572, "MEAN_MOTION_DOT": 0.0003271, "MEAN_MOTION_DDOT": 0}, "tle": {"line1": "1 41886U 16078C   25341.28945803  .00032710  00000+0  53598-3 0  9998", "line2": "2 41886  34.9440  56.0541 0010514 160.5047 199.6079 15.51382069499225"}}, "geometry": {"type": "Point", "coordinates": [101.68133328232686, 28.11415122606107]}}, {"type": "Feature", "properties": {"norad_id": 41887, "name": "CYGFM01", "group": "weather", "lat": -34.90124923985933, "lon": -11.493876032638305, "alt_km": 429.47080083921173, "timestamp": "2025-12-07T22:37:42.725775+00:00", "meta": {"OBJECT_NAME": "CYGFM01", "OBJECT_ID": "2016-078D", "EPOCH": "2025-12-06T23:48:24.880032", "MEAN_MOTION": 15.47893664, "ECCENTRICITY": 0.00090839, "INCLINATION": 34.9428, "RA_OF_ASC_NODE": 87.0575, "ARG_OF_PERICENTER": 120.3222, "MEAN_ANOMALY": 239.8399, "EPHEMERIS_TYPE": 0, "CLASSIFICATION_TYPE": "U", "NORAD_CAT_ID": 41887, "ELEMENT_SET_NO": 999, "REV_AT_EPOCH": 49881, "BSTAR": 0.00053007626, "MEAN_MOTION_DOT": 0.00028553, "MEAN_MOTION_DDOT": 0}, "tle": {"line1": "1 41887U 16078D   25340.99195463  .00028553  00000+0  53008-3 0  9991", "line2": "2 41887  34.9428  87.0575 0009083 120.3222 239.8399 15.47893664498810"}}, "geometry": {"type": "Point", "coordinates": [-11.493876032638305, -34.90124923985933]}}, {"type": "Feature", "properties": {"norad_id": 41888, "name": "CYGFM08", "group": "weather", "lat": -31.05955064948055, "lon": 4.293448738816296, "alt_km": 426.8850928420716, "timestamp": "2025-12-07T22:37:42.725787+00:00", "meta": {"OBJECT_NAME": "CYGFM08", "OBJECT_ID": "2016-078E", "EPOCH": "2025-12-07T07:26:20.570784", "MEAN_MOTION": 15.49099947, "ECCENTRICITY": 0.00109343, "INCLINATION": 34.946, "RA_OF_ASC_NODE": 68.034, "ARG_OF_PERICENTER": 148.8812, "MEAN_ANOMALY": 211.2559, "EPHEMERIS_TYPE": 0, "CLASSIFICATION_TYPE": "U", "NORAD_CAT_ID": 41888, "ELEMENT_SET_NO": 999, "REV_AT_EPOCH": 49909, "BSTAR": 0.0005229452, "MEAN_MOTION_DOT": 0.00029414, "MEAN_MOTION_DDOT": 0}, "tle": {"line1": "1 41888U 16078E   25341.30996031  .00029414  00000+0  52295-3 0  9992", "line2": "2 41888  34.9460  68.0340 0010934 148.8812 211.2559 15.49099947499090"}}, "geometry": {"type": "Point", "coordinates": [4.293448738816296, -31.05955064948055]}}, {"type": "Feature", "properties": {"norad_id": 41890, "name": "CYGFM07", "group": "weather", "lat": -34.85665122887215, "lon": -32.90157951725831, "alt_km": 420.7589178166927, "timestamp": "2025-12-07T22:37:42.725798+00:00", "meta": {"OBJECT_NAME": "CYGFM07", "OBJECT_ID": "2016-078G", "EPOCH": "2025-12-07T05:59:39.167232", "MEAN_MOTION": 15.49672777, "ECCENTRICITY": 0.00092905, "INCLINATION": 34.9482, "RA_OF_ASC_NODE": 57.4395, "ARG_OF_PERICENTER": 166.8164, "MEAN_ANOMALY": 193.2802, "EPHEMERIS_TYPE": 0, "CLASSIFICATION_TYPE": "U", "NORAD_CAT_ID": 41890, "ELEMENT_SET_NO": 999, "REV_AT_EPOCH": 49910, "BSTAR": 0.00053383304, "MEAN_MOTION_DOT": 0.00030627, "MEAN_MOTION_DDOT": 0}, "tle": {"line1": "1 41890U 16078G   25341.24975888  .00030627  00000+0  53383-3 0  9992", "line2": "2 41890  34.9482  57.4395 0009290 166.8164 193.2802 15.49672777499102"}}, "geometry": {"type": "Point", "coordinates": [-32.90157951725831, -34.85665122887215]}}, {"type": "Feature", "properties": {"norad_id": 41891, "name": "CYGFM03", "group": "weather", "lat": 32.60874186338526, "lon": 168.43277635004043, "alt_km": 408.08275097275964, "timestamp": "2025-12-07T22:37:42.725808+00:00", "meta": {"OBJECT_NAME": "CYGFM03", "OBJECT_ID": "2016-078H", "EPOCH": "2025-12-07T06:41:44.733408", "MEAN_MOTION": 15.49575855, "ECCENTRICITY": 0.0008555, "INCLINATION": 34.9434, "RA_OF_ASC_NODE": 59.163, "ARG_OF_PERICENTER": 154.006, "MEAN_ANOMALY": 206.1093, "EPHEMERIS_TYPE": 0, "CLASSIFICATION_TYPE": "U", "NORAD_CAT_ID": 41891, "ELEMENT_SET_NO": 999, "REV_AT_EPOCH": 49908, "BSTAR": 0.00052952955, "MEAN_MOTION_DOT": 0.00030266, "MEAN_MOTION_DDOT": 0}, "tle": {"line1": "1 41891U 16078H   25341.27898997  .00030266  00000+0  52953-3 0  9992", "line2": "2 41891  34.9434  59.1630 0008555 154.0060 206.1093 15.49575855499080"}}, "geometry": {"type": "Point", "coordinates": [168.43277635004043, 32.60874186338526]}}]}